{
  "type": "FeatureCollection",
  "features": [
    {
      "type": "Feature",
      "properties": {
        "norad_id": 19071,
        "name": "OSCAR 32",
        "group": "nnss",
        "lat": 3.0000572458355657,
        "lon": 16.86455038780161,
        "alt_km": 1250.5169358612047,
        "timestamp": "2025-12-24T05:51:19.877204+00:00",
        "meta_object_name": "OSCAR 32",
        "meta_object_id": "1988-033B",
        "meta_epoch": "2025-12-23T22:56:23.699040",
        "meta_mean_motion": 13.27955635,
        "meta_eccentricity": 0.01891699,
        "meta_inclination": 90.3208,
        "meta_ra_of_asc_node": 16.8724,
        "meta_arg_of_pericenter": 135.7301,
        "meta_mean_anomaly": 292.2728,
        "meta_ephemeris_type": 0,
        "meta_classification_type": "U",
        "meta_norad_cat_id": 19071,
        "meta_element_set_no": 999,
        "meta_rev_at_epoch": 82414,
        "meta_bstar": 9.6531271e-05,
        "meta_mean_motion_dot": 5.8e-07,
        "meta_mean_motion_ddot": 0,
        "tle_line1": "1 19071U 88033B   25357.95582985  .00000058  00000+0  96531-4 0  9993",
        "tle_line2": "2 19071  90.3208  16.8724 0189169 135.7301 292.2728 13.27955635824141"
      },
      "geometry": {
        "type": "Point",
        "coordinates": [
          16.86455038780161,
          3.0000572458355657
        ]
      }
    },
    {
      "type": "Feature",
      "properties": {
        "norad_id": 19223,
        "name": "NOVA 2",
        "group": "nnss",
        "lat": -5.627900874063369,
        "lon": 78.25678440450677,
        "alt_km": 1154.9895852953096,
        "timestamp": "2025-12-24T05:51:19.877214+00:00",
        "meta_object_name": "NOVA 2",
        "meta_object_id": "1988-052A",
        "meta_epoch": "2025-12-22T19:59:41.866944",
        "meta_mean_motion": 13.22936943,
        "meta_eccentricity": 0.00297225,
        "meta_inclination": 89.9867,
        "meta_ra_of_asc_node": 78.2599,
        "meta_arg_of_pericenter": 349.0095,
        "meta_mean_anomaly": 130.0034,
        "meta_ephemeris_type": 0,
        "meta_classification_type": "U",
        "meta_norad_cat_id": 19223,
        "meta_element_set_no": 999,
        "meta_rev_at_epoch": 81081,
        "meta_bstar": 0.00019678035,
        "meta_mean_motion_dot": 9.1e-07,
        "meta_mean_motion_ddot": 0,
        "tle_line1": "1 19223U 88052A   25356.83312346  .00000091  00000+0  19678-3 0  9994",
        "tle_line2": "2 19223  89.9867  78.2599 0029722 349.0095 130.0034 13.22936943810819"
      },
      "geometry": {
        "type": "Point",
        "coordinates": [
          78.25678440450677,
          -5.627900874063369
        ]
      }
    },
    {
      "type": "Feature",
      "properties": {
        "norad_id": 19419,
        "name": "OSCAR 25",
        "group": "nnss",
        "lat": 15.815955980545851,
        "lon": -159.70895664315321,
        "alt_km": 1052.706295505055,
        "timestamp": "2025-12-24T05:51:19.877224+00:00",
        "meta_object_name": "OSCAR 25",
        "meta_object_id": "1988-074A",
        "meta_epoch": "2025-12-23T19:11:04.430112",
        "meta_mean_motion": 13.42625286,
        "meta_eccentricity": 0.00951018,
        "meta_inclination": 90.0337,
        "meta_ra_of_asc_node": 20.28,
        "meta_arg_of_pericenter": 213.8581,
        "meta_mean_anomaly": 323.2352,
        "meta_ephemeris_type": 0,
        "meta_classification_type": "U",
        "meta_norad_cat_id": 19419,
        "meta_element_set_no": 999,
        "meta_rev_at_epoch": 82788,
        "meta_bstar": 0.00012495354,
        "meta_mean_motion_dot": 8.1e-07,
        "meta_mean_motion_ddot": 0,
        "tle_line1": "1 19419U 88074A   25357.79935683  .00000081  00000+0  12495-3 0  9995",
        "tle_line2": "2 19419  90.0337  20.2800 0095101 213.8581 323.2352 13.42625286827886"
      },
      "geometry": {
        "type": "Point",
        "coordinates": [
          -159.70895664315321,
          15.815955980545851
        ]
      }
    },
    {
      "type": "Feature",
      "properties": {
        "norad_id": 19420,
        "name": "OSCAR 31",
        "group": "nnss",
        "lat": 46.6143019619915,
        "lon": 20.595895802276374,
        "alt_km": 1161.2504080385634,
        "timestamp": "2025-12-24T05:51:19.877234+00:00",
        "meta_object_name": "OSCAR 31",
        "meta_object_id": "1988-074B",
        "meta_epoch": "2025-12-23T12:20:30.247008",
        "meta_mean_motion": 13.4258639,
        "meta_eccentricity": 0.00934673,
        "meta_inclination": 90.0354,
        "meta_ra_of_asc_node": 20.6308,
        "meta_arg_of_pericenter": 208.825,
        "meta_mean_anomaly": 273.2468,
        "meta_ephemeris_type": 0,
        "meta_classification_type": "U",
        "meta_norad_cat_id": 19420,
        "meta_element_set_no": 999,
        "meta_rev_at_epoch": 82795,
        "meta_bstar": 0.00011194923,
        "meta_mean_motion_dot": 7.4e-07,
        "meta_mean_motion_ddot": 0,
        "tle_line1": "1 19420U 88074B   25357.51423897  .00000074  00000+0  11195-3 0  9994",
        "tle_line2": "2 19420  90.0354  20.6308 0093467 208.8250 273.2468 13.42586390827956"
      },
      "geometry": {
        "type": "Point",
        "coordinates": [
          20.595895802276374,
          46.6143019619915
        ]
      }
    }
  ]
}